#dP2021  9 15  0  0  0.00000000     288   u+U IGb14 FIT  GFZ                    
## 2175 259200.00000000   300.00000000 59472 0.0000000000000                    
+  125   C01C02C03C04C05C06C07C08C09C10C11C12C13C14C16C19C20                    
+        C21C22C23C24C25C26C27C28C29C30C32C33C34C35C36C37C38                    
+        C39C40C41C42C43C44C45C46C59C60E01E02E03E04E05E07E08                    
+        E09E11E12E13E14E15E18E19E21E24E25E26E27E30E31E33E36                    
+        G01G02G03G04G05G06G07G08G09G10G11G12G13G14G15G16G17                    
+        G18G19G20G21G22G23G24G25G26G27G28G29G30G31G32J01J02                    
+        J03J07R01R02R03R04R05R07R08R09R11R12R13R14R15R16R17                    
+        R18R19R20R21R22R24 00 00 00 00 00 00 00 00 00 00 00                    
++        10 10 10 10 10  9 10 10  8  9 10  8  7 10 10  6  6                    
++         5  7  6  6  7  7 10 10  7  6  6  8  7 10  5  6 10                    
++        10 10  6  7  9  6  5  5 10 10  7  6  6  5  5  8  6                    
++         5  8  6  5  5  6  7  5  6  7  5  5  5  5  6  7  6                    
++         8  5  6  5  5  6  6  6  5  5  5  6  5  6  5  5  5                    
++         7  6  5  7  7  6  5  5  6  6  6  5  5  7  7  0 10                    
++        10 10  7  5  7  5  8  6  6  6  5  8  6  6  6  5  6                    
++         5  8 10  7  8  5  0  0  0  0  0  0  0  0  0  0  0                    
%c M  cc GPS ccc cccc cccc cccc cccc ccccc ccccc ccccc ccccc                    
%c cc cc ccc ccc cccc cccc cccc cccc ccccc ccccc ccccc ccccc                    
%f  1.2500000  1.025000000  0.00000000000  0.000000000000000                    
%f  0.0000000  0.000000000  0.00000000000  0.000000000000000                    
%i    0    0    0    0      0      0      0      0         0                    
%i    0    0    0    0      0      0      0      0         0                    
/* PCV:IGS14_2163 OL/AL:FES2004  NONE     YN CLK:CoN ORB:CoN                    
/*     GeoForschungsZentrum Potsdam                                             
/*                                                                              
/*                                                                              
*  2021  9 15  0 45  0.00000000                                                 
PC01 -34290.783684  24497.222203    192.503256    -71.491354                    
PC02   4408.283320  41921.139931     74.279462    334.597257                    
PC03 -14740.179818  39456.033729   1005.838370   -179.435918                    
PC04 -39573.730604  14460.747970    692.661756    199.767735                    
PC05  21779.549950  36088.115930   -142.775700 999999.999999                    
PC06 -14503.708020  24364.229388 -31266.318795    193.444623                    
PC07 -12997.922185  40014.572702   -371.980163   -103.472145                    
PC08   1832.996363  29993.974590  29632.908380   -944.553925                    
PC09  -4000.350790  24469.774162 -33821.847512   -106.759015                    
PC10  -7076.333601  40826.309535   6517.250593     -0.101411                    
PC11 -17731.585880 -11181.809098 -18333.336695    575.517402                    
PC12   2195.868140 -15376.103166 -23152.438795    758.043586                    
PC13   8334.157519  33841.224665  24025.926814    409.345175                    
PC14  -8316.317587 -16399.240501  21023.345803    646.225427                    
PC16 -17452.213245  23503.555160 -30281.740459   -808.927009                    
PC19  14389.464249   6616.074094 -22959.118485    962.153173                    
PC20   2276.317651  22124.230931 -16831.033426   -802.613563                    
PC21  11940.294149 -25234.081671    253.899530   -932.838826                    
PC22  18642.290976 -13263.485557 -16002.099342   -951.866155                    
PC23 -17202.885249   2449.984310 -21821.245605   -962.241054                    
PC24 -10874.832063 -24800.830861   6685.384807   -965.962951                    
PC25 -20610.766453 -14883.903063 -11483.398568   -854.786032                    
PC26   3141.998039 -19697.978749  19497.700712    849.974921                    
PC27 -12663.486156  14627.235519  20093.576908    597.459165                    
PC28 -26525.750820   5910.394161   6314.611365    -26.404927                    
PC29  25016.136125   5334.445678  11155.868339    447.249920                    
PC30   8463.961489  14623.058618  22200.764931    480.644899                    
PC32 -11789.112668  25288.045676   -174.523182   -945.591657                    
PC33 -14398.345361  -6682.095618  22949.712678   -969.093756                    
PC34  -9392.874308 -14450.240039 -21961.255805   -581.905759                    
PC35  26444.733543  -6609.140422  -5921.885995    -91.888798                    
PC36  20216.998261  15681.083565  11176.922726   -759.342925                    
PC37  -4365.017623  19015.333348 -19935.068346   -865.176555                    
PC38  -5911.589744  26734.069380  32108.836926    175.528789                    
PC39 -23194.946695  23359.369474 -26434.819594     33.236480                    
PC40 -18749.341847  37541.264198  -3074.457170    199.520445                    
PC41 -18658.178049  12931.626466  16274.698639   -937.678653                    
PC42  -1685.271122 -22650.821537  16258.868248   -954.002394                    
PC43 -24693.922390  -5873.942806 -11621.753258   -914.755943                    
PC44  12315.936258 -15139.229955 -19946.709929    391.298584                    
PC45  17035.681335  -2588.017925  21966.624861    547.865777                    
PC46  11806.988862  24676.943302  -5597.199866     84.926875                    
PC59 -32260.644304  27138.687017   -649.765152     -0.906041                    
PC60   7304.557622  41485.246259   1633.889347     -0.807248                    
PE01  12450.104940  22340.090565  14915.438684   -474.758630                    
PE02 -12502.936946 -22225.252593 -15010.006141    246.881271                    
PE03 -13650.147916 -10921.505275  23879.895407   -474.689002                    
PE04  25186.394247  -5761.361510 -14444.489906   -856.846266                    
PE05   6091.831833 -21467.127400  19448.265426   -249.301948                    
PE07 -22049.732376  19381.422104  -3741.079421   -585.633206                    
PE08 -25191.249492   6252.692202  14214.969401   5937.580246                    
PE09  21884.097172 -19550.915520   3942.642306   5531.464071                    
PE11  16018.002256  -9440.491899 -23043.466424   5426.222541                    
PE12  27593.256870   5372.406802  -9266.185627   5009.390804                    
PE13 -16408.691281   9092.207536  22894.149275    421.501032                    
PE14  26385.315619 -13631.808353  -2667.980455  -1570.996528                    
PE15 -27599.482574  -5319.770435   9272.248589    792.294340                    
PE18 -25652.376865   2783.642083  -8577.520545  -1724.255345                    
PE19  11422.793932  12597.844752 -24226.408855    377.781258                    
PE21   1545.633636  29467.523651  -2331.593513   -687.948633                    
PE24  11461.042906 -18983.872380  19595.047911  -1118.156565                    
PE25  -1374.794630 -29455.847604   2581.006084   -546.670610                    
PE26   5331.917507  18462.520259  22516.545716   1343.045323                    
PE27 -10817.801029  19939.427966 -19006.023140   -120.557730                    
PE30 -16816.490456  -2655.168300 -24211.440257   2619.285326                    
PE31  16739.918448   1248.258069  24396.740989   -485.600940                    
PE33  22504.258491  16561.785596   9775.333715   -464.949919                    
PE36  -4385.429605 -18104.479016 -23003.609524   -262.495928                    
PG01 -22498.662658 -14404.125424    996.692239    567.459874                    
PG02   6717.374540  18447.595260  18509.559185   -632.354964                    
PG03 -12449.839825 -13224.579851  19314.189681   -289.648787                    
PG04 -19933.793075  -4023.649709  17124.495228   -204.303394                    
PG05   6835.898202  23431.124294 -10437.931662    -54.438246                    
PG06  -6844.832011  13086.042201  22130.853709     74.610076                    
PG07 -22422.002397  -3084.098682 -13917.138096    245.268552                    
PG08 -10475.262967 -11376.204776 -21635.970147    -36.516366                    
PG09 -24484.430509   6288.243417   8124.959363   -360.956487                    
PG10  11659.630594 -17884.362959 -15497.253018   -203.442666                    
PG11   4553.834083  19053.662101  17926.801884     17.836159                    
PG12  11058.644859  14767.738524  18907.506622    -97.489488                    
PG13   1715.507012  15255.774892 -21804.942387    185.589642                    
PG14 -12601.400527  17778.612025 -15149.220365      1.254615                    
PG15  12457.245475  10786.003634 -21257.874136   -121.054703                    
PG16   -805.394342 -25486.902595  -6764.573306   -390.729185                    
PG17 -22260.711291  13544.760355   5595.961805    504.789515                    
PG18  21172.270504   1220.180515 -16059.700128    322.262969                    
PG19 -16874.166398  15567.733051  12942.300518     53.042361                    
PG20   1248.964038  26629.412786   1545.836480    519.135082                    
PG21 -20248.053337 -16225.234059  -6175.455965    142.748109                    
PG22 -11241.119914 -19742.842902  14097.546396   -513.065905                    
PG23  14847.141190  -6223.571743 -21136.107194     57.417350                    
PG24  21561.203341  15442.387967  -3982.277192    234.702791                    
PG25  14881.252052   3488.580902  21474.082987    208.399410                    
PG26   5030.011513 -25097.802193   6453.293373    134.273698                    
PG27    487.656021 -16242.765598 -21112.610032   -192.996196                    
PG28  -9821.534580  22837.624492  -9073.836019    501.004286                    
PG29  24257.647580  -2344.211661  10592.460579   -411.804504                    
PG30 -15261.102930   7626.409945 -20337.214718   -472.927789                    
PG31   5578.954015 -14525.339359  21380.845174   -139.801518                    
PG32  19467.389915 -16151.496093   7911.973192     -0.575277                    
PJ01 -33667.736125  25271.670712   7411.773729     60.562422                    
PJ02 -20014.530579  26828.978295 -21099.293810     -2.447548                    
PJ03 -30344.331489  24383.293630  21191.108349     -2.042497                    
PJ07 -25394.650379  33652.313209    -43.672856      0.022913                    
PR01 -11549.659253  21805.857244  -6446.472796     85.324353                    
PR02   2513.877475  13537.305539 -21451.315587    493.334304                    
PR03  14017.719168  -2083.021381 -21157.313766     42.964400                    
PR04  17370.022601 -16338.471879  -9020.145564    104.787571                    
PR05  11198.929938 -21409.306712   8145.701857     78.960010                    
PR07 -14389.138020   2759.201417  20925.651969    -41.204098                    
PR08 -17410.700299  16349.087562   9042.502738    -60.939385                    
PR09 -11891.802785 -22401.117597  -3053.808908     13.265019                    
PR11  -8851.153910   6722.603803 -22942.279214     48.537245                    
PR12   2083.336243  21192.804985 -14022.388117    262.037357                    
PR13  11513.212445  22650.997283   2225.497971    -60.653306                    
PR14  14368.218064  10501.739287  18284.909402     68.810424                    
PR15   8742.122148  -7303.688274  22850.407888    101.470924                    
PR16  -3188.903767 -21606.654265  13054.296078    -21.439825                    
PR17  24881.132839   4508.609866   3556.473351    458.580791                    
PR18  21693.034244  -3213.017424 -12981.930093     90.452911                    
PR19   8328.638984  -8828.856286 -22440.311760   -159.397000                    
PR20 -13311.653104 -10530.397145 -19049.279738    -55.903948                    
PR21 -25070.337533  -4023.131966  -2232.326668   -239.326693                    
PR22 -21205.820125   3484.801222  13792.972770   -133.286668                    
PR24  14106.174898  10559.186655  18468.565872     58.668157                    
EOF                                     
